[{"OBJECT_NAME":"STARLINK-31282","OBJECT_ID":"2024-056M","EPOCH":"2026-03-09T12:01:58.762848","MEAN_MOTION":15.27572077,"ECCENTRICITY":0.0001307,"INCLINATION":43.0042,"RA_OF_ASC_NODE":231.9332,"ARG_OF_PERICENTER":267.9054,"MEAN_ANOMALY":92.1648,"EPHEMERIS_TYPE":0,"CLASSIFICATION_TYPE":"U","NORAD_CAT_ID":59307,"ELEMENT_SET_NO":999,"REV_AT_EPOCH":11112,"BSTAR":3.4777849e-5,"MEAN_MOTION_DOT":6.95e-6,"MEAN_MOTION_DDOT":0},{"OBJECT_NAME":"DMSP 5D-2 F13 DEB","OBJECT_ID":"1995-015HL","EPOCH":"2026-02-09T02:06:19.247328","MEAN_MOTION":15.12822218,"ECCENTRICITY":0.00117732,"INCLINATION":98.8603,"RA_OF_ASC_NODE":96.8879,"ARG_OF_PERICENTER":223.037,"MEAN_ANOMALY":136.9936,"EPHEMERIS_TYPE":0,"CLASSIFICATION_TYPE":"U","NORAD_CAT_ID":42294,"ELEMENT_SET_NO":999,"REV_AT_EPOCH":55633,"BSTAR":0.010466292,"MEAN_MOTION_DOT":0.00188804,"MEAN_MOTION_DDOT":0}]
